[{"OBJECT_NAME":"STARLINK-4630","OBJECT_ID":"2022-105AJ","EPOCH":"2026-03-09T22:50:44.378592","MEAN_MOTION":15.05647203,"ECCENTRICITY":0.00023198,"INCLINATION":97.6031,"RA_OF_ASC_NODE":311.4726,"ARG_OF_PERICENTER":85.4465,"MEAN_ANOMALY":274.7027,"EPHEMERIS_TYPE":0,"CLASSIFICATION_TYPE":"U","NORAD_CAT_ID":53680,"ELEMENT_SET_NO":999,"REV_AT_EPOCH":19334,"BSTAR":6.070959e-5,"MEAN_MOTION_DOT":8.15e-6,"MEAN_MOTION_DDOT":0},{"OBJECT_NAME":"UNKNOWN","OBJECT_ID":"","EPOCH":"2026-03-07T16:41:41.743392","MEAN_MOTION":15.0507428,"ECCENTRICITY":0.0006664,"INCLINATION":85.8737,"RA_OF_ASC_NODE":153.9139,"ARG_OF_PERICENTER":326.6675,"MEAN_ANOMALY":33.4139,"EPHEMERIS_TYPE":0,"CLASSIFICATION_TYPE":"U","NORAD_CAT_ID":82448,"ELEMENT_SET_NO":999,"REV_AT_EPOCH":44981,"BSTAR":0.00062595,"MEAN_MOTION_DOT":8.933e-5,"MEAN_MOTION_DDOT":0}]
